#dP2022  3 30  6  0  0.00000000      96 __u+U ITR00 EXT  IAC
## 2203 280800.00000000   900.00000000 59668 0.2500000000000
+  116   C06C07C08C10C11C12C13C14C16C19C20C21C22C23C24C25C26
+        C27C28C29C30C32C33C34C35C36C37C38C39C40C41C42C43C44
+        C45C46E01E02E03E04E05E07E08E09E10E11E12E13E14E15E18
+        E19E21E24E25E26E27E30E31E33E34E36G01G02G03G04G05G06
+        G07G08G09G10G11G12G13G14G15G16G17G18G19G20G21G22G23
+        G24G25G26G27G28G29G30G31G32J02J03R01R02R03R04R05R07
+        R08R09R11R12R13R14R15R17R18R19R20R21R22R24  0  0  0
++        11 10 10 11 10 10 11  9 11 10  9  9 10 10 10 10  9
++        10  9  9  9  9  9 10 10 10  9  9 12 10 10  9 11  9
++         9  9  9  9  9  9 10  9  9  9  9  9  9  9  9  9  8
++         9  9  9  9  9  9  9  9  9  9  9  9  9  9  9  9  9
++         9  9 10  9  9  9  9  9  9  9  9  9  9  9  9  9  9
++        10  9  9  9  8  9  9  9  9 10 10 10 10 10  9  9  9
++         9 10  0  9  9  9  8  9  9  8 10  9 10  9  0  0  0
%c M  cc GPS ccc cccc cccc cccc cccc ccccc ccccc ccccc ccccc
%c cc cc ccc ccc cccc cccc cccc cccc ccccc ccccc ccccc ccccc
%f  0.0000000  0.000000000  0.00000000000  0.000000000000000
%f  0.0000000  0.000000000  0.00000000000  0.000000000000000
%i    0    0    0    0      0      0      0      0         0
%i    0    0    0    0      0      0      0      0         0
/* IAC                                ULTRA-RAPID PREDICTION
/* S/V CLOCKS ARE ALIGNED TO GNSS TIME                      
/* G:C1WC2W R:C1PC2P E:C1XC5X C:C2IC6I J:C1CC2S             
/* PCV:IGS14_2196 OL/AL:FES2004  NONE     YN ORB:CoN CLK:CoN
*  2022 03 30 18 30  0.00000000
PC06  -3304.606806  36741.436939  20625.023693   -295.691011
PC07 -12400.025717  25159.480177 -31509.509573     69.283915
PC08 -19319.561337  35113.757696  12881.289614    229.322706
PC10  -3548.848090  26531.231191 -32336.916580    137.633323
PC11  -4523.776160 -26665.055001   6986.522306    261.439038
PC12   8109.492384 -17143.596335  20507.311029   -632.337804
PC13 -10788.254638  34960.554225  20864.886063    -74.762540
PC14  -3423.957179 -16223.033782 -22427.024502    453.669535
PC16  -4258.118712  35612.793777  22533.463265    111.368633
PC19  14137.762361  15183.399798  18686.064822    882.309486
PC20  -5957.853128  14954.393272  22818.219559   -861.736767
PC21  23750.532693  -5669.179326 -13466.172778    -24.939811
PC22  26855.108240   6659.282835   3526.095244   -963.845148
PC23 -17639.397541  -2754.192513  21445.880437   -937.380846
PC24  13157.867691 -23703.214643   6658.625294   -949.618923
PC25  -4474.922605 -18299.924156  20584.172662   -758.229344
PC26  20899.899086 -15974.245037  -9381.460990    758.759495
PC27 -13690.624948   8462.803776 -22819.226332    700.118181
PC28 -17673.921298 -11700.798676 -18149.964506     49.558136
PC29  12163.442018  24997.556737   2471.143427    534.690611
PC30  -1384.636961  23622.236947 -14821.467807    496.094499
PC32 -23744.629544   5863.041785  13470.141178   -965.380766
PC33 -14197.415529 -15118.888058 -18667.338341   -971.836620
PC34    712.558877 -24083.063237  14044.011578   -436.643213
PC35  18099.500841  11976.299837  17554.659617    206.123432
PC36   3604.894384  18706.250856 -20371.371131   -965.170475
PC37 -21409.029768  14573.624030  10374.902919   -931.765699
PC38 -22812.427109  34934.291716   5558.573075    221.660185
PC39  -7303.753595  31351.329052  27343.260826     34.920020
PC40 -17159.649117  18568.253703 -33795.449531    256.701470
PC41 -26781.520215  -6788.867359  -3872.569296   -968.464914
PC42   7034.518928 -14718.509023 -22589.277505   -944.033059
PC43 -11704.013357 -25250.664489  -1832.576929   -932.925666
PC44  13623.213550  -8714.225713  22727.830352    611.781132
PC45  17705.290736   2393.063595 -21445.216456    718.419959
PC46 -12063.098941  23821.742801  -8044.928730   -245.550161
PE01  -1932.627543  17917.776306 -23484.010941   -606.867031
PE02   1785.917773 -17883.014896  23515.702416    289.638877
PE03  -9219.299932 -22466.458978 -16929.010957   -542.839721
PE04  23224.287806  18353.668382     63.790182   -995.850947
PE05  10503.307727 -13445.054237 -24181.841497   -195.476268
PE07 -23826.665580  -3255.165579  17274.330120   -653.613174
PE08 -23446.697232 -18074.089950    296.159702   -503.971636
PE09  23685.416773   3072.874597 -17470.326292   -467.249211
PE10  15120.311317   6585.170330  24574.294639   -503.650477
PE11  16478.473950  -5554.150578  23942.050924   4093.320685
PE12  11525.884634  17152.459661  21201.877945   4687.497171
PE13 -16395.607577   4848.922177 -24161.107166    427.672173
PE14 -20590.428118 -21873.631803  -1401.680105  -1796.640741
PE15 -11441.631089 -17227.653120 -21165.765798    754.642583
PE18   9884.864377  23267.091589  -8962.724415  -1622.694914
PE19   6882.687891  21975.869249  18609.809368  -2188.989222
PE21 -20329.375799  17369.596265 -12694.644151   -725.580450
PE24  28149.107961  -5766.790886  -7187.340565   -533.973948
PE25  20548.504173 -17287.276490  12463.301053   -568.648273
PE26 -11388.835446  24526.849963 -12040.920601   -973.003195
PE27 -28168.840576   6786.941598   6015.401972   -265.016886
PE30 -18478.878834  -8516.779208  21477.030832   -390.832321
PE31  19374.267093   7689.425412 -21017.575181   -494.316688
PE33   -235.777130  29052.969606   5708.568735   -458.079308
PE34     48.044073 -29005.042817  -5908.333567   -509.501384
PE36  11692.132359 -23900.626946  12957.523554   -352.685306
PG01  13495.268043 -19425.636103  11426.482862    396.504852
PG02 -14794.999810  -1335.167124 -21368.656371   -652.780482
PG03  20337.347959 -13027.046632 -11025.307858   -186.204402
PG04  10804.237382 -10696.661180 -21768.457604   -179.811393
PG05 -25891.545615   4613.529028  -4422.045801    -76.538475
PG06  -7407.481174 -17853.529163 -18113.169780    249.273111
PG07   4523.079187 -25684.696344   3698.000582    318.434546
PG08  18047.219956  -1314.340202  19528.398603    -61.926348
PG09      9.803720 -18723.645971 -18890.960958   -346.783028
PG10   8165.868627  13182.049676  21742.925350   -363.158687
PG11 -15029.859041  -2771.829698 -21727.468326    -50.114170
PG12 -23143.854549  10068.701871  -8326.202848   -192.828482
PG13 -19690.987743  -8271.257796  15743.661383    285.667826
PG14  -6560.845562 -14191.691412  21471.194305    -98.602588
PG15 -17745.757982   4071.260257  19031.479057    -72.763227
PG16  25572.176976   1452.941295  -8152.048866   -486.479538
PG17 -12692.072788 -22226.892513   7423.993316    594.027721
PG18  -5469.927980  25746.066115   3099.046436    207.549847
PG19 -17004.630104 -20532.670509   -858.257383    137.892366
PG20 -22841.062537   -661.624536 -13332.275873    516.060962
PG21  15800.938280  -9253.838889  19656.843889    159.969110
PG22  18304.212814  19146.255778  -2609.671845    235.615059
PG23  -4561.328343  16090.491801  20601.335612    -11.105071
PG24 -14275.281435  16327.699788  14756.061238    262.666226
PG25 -11853.123899  16041.524841 -17689.341197    305.394064
PG26  18858.500763   7419.083847 -17409.915809    194.883948
PG27  21491.979068  10075.948273  12110.888487    170.052951
PG28 -14928.539489 -11093.393377  19389.475768    374.595880
PG29  -2584.934537  17494.612503 -19848.092266   -497.445519
PG30  -1550.561486 -23914.704898  11254.416168   -521.399518
PG31   9569.987691  15484.813894 -19304.338805   -171.249963
PG32  16150.536084  20742.962386   4583.086193    -95.200290
PJ02 -35784.112055  19843.060449  -5551.475842     -2.349504
PJ03 -19938.842039  26263.217416 -21688.951589     -1.264524
PR01   3426.998141  12306.001476  22083.368516      7.468843
PR02  20626.648895  12040.835867   9091.195315    514.077675
PR03  23752.351285   4240.806585  -8311.259346     54.024793
PR04  13488.706523  -5541.258066 -20898.020689    134.321148
PR05  -4095.146948 -12379.312445 -21902.553550     90.294013
PR07 -23502.650496  -3755.915284   9156.413184     33.261334
PR08 -13349.162811   5817.681495  20997.947642    -64.333245
PR09  -9460.320749  -6639.908879  22756.606175     47.129817
PR11 -18738.999069  17276.136812  -1167.081312     42.295662
PR12  -6777.029403  17042.060302 -17698.330519     17.672025
PR13   8211.687458   7451.142094 -22991.847106    -20.169789
PR14  19483.445153  -7565.217029 -14606.881830     75.964746
PR15  18633.607029 -17305.924662   2010.845979     97.188739
PR17  11003.758360   2580.573946  22871.277608    513.646569
PR18   6387.989004 -14890.256335  19692.708601    111.968005
PR19   -346.245516 -24473.876250   7173.396888   -183.542583
PR20  -8668.692538 -20197.990395 -12894.721941    -67.699305
PR21 -10734.150246  -1084.642125 -23116.634962   -289.453954
PR22  -6041.819501  15768.236329 -19175.958737   -173.821885
PR24   9612.474039  19482.815709  13378.453112     86.800125
EOF
